[{"OBJECT_NAME":"HERMES-2","OBJECT_ID":"2025-052AK","EPOCH":"2026-03-09T06:33:59.789952","MEAN_MOTION":15.2800762,"ECCENTRICITY":0.0006347,"INCLINATION":97.4005,"RA_OF_ASC_NODE":323.8424,"ARG_OF_PERICENTER":101.0389,"MEAN_ANOMALY":259.1564,"EPHEMERIS_TYPE":0,"CLASSIFICATION_TYPE":"U","NORAD_CAT_ID":63243,"ELEMENT_SET_NO":999,"REV_AT_EPOCH":5475,"BSTAR":0.00034986,"MEAN_MOTION_DOT":9.493e-5,"MEAN_MOTION_DDOT":0},{"OBJECT_NAME":"STARLINK-36553","OBJECT_ID":"2026-012P","EPOCH":"2026-03-08T10:21:51.630912","MEAN_MOTION":15.27617833,"ECCENTRICITY":0.00015865,"INCLINATION":43.0036,"RA_OF_ASC_NODE":321.1396,"ARG_OF_PERICENTER":268.3746,"MEAN_ANOMALY":91.6924,"EPHEMERIS_TYPE":0,"CLASSIFICATION_TYPE":"U","NORAD_CAT_ID":67506,"ELEMENT_SET_NO":999,"REV_AT_EPOCH":757,"BSTAR":0.0012736324,"MEAN_MOTION_DOT":0.00034993,"MEAN_MOTION_DDOT":0}]
